CCSDS_OMM_VERS,COMMENT,CREATION_DATE,ORIGINATOR,OBJECT_NAME,OBJECT_ID,CENTER_NAME,REF_FRAME,TIME_SYSTEM,MEAN_ELEMENT_THEORY,EPOCH,MEAN_MOTION,ECCENTRICITY,INCLINATION,RA_OF_ASC_NODE,ARG_OF_PERICENTER,MEAN_ANOMALY,EPHEMERIS_TYPE,CLASSIFICATION_TYPE,NORAD_CAT_ID,ELEMENT_SET_NO,REV_AT_EPOCH,BSTAR,MEAN_MOTION_DOT,MEAN_MOTION_DDOT,SEMIMAJOR_AXIS,PERIOD,APOAPSIS,PERIAPSIS,OBJECT_TYPE,RCS_SIZE,COUNTRY_CODE,LAUNCH_DATE,SITE,DECAY_DATE,FILE,GP_ID,TLE_LINE0,TLE_LINE1,TLE_LINE2
2,GENERATED VIA SPACE-TRACK.ORG API,2016-04-06T16:12:20,18 SPCS,SKYNET 4D,1998-002A,EARTH,TEME,UTC,SGP4,2016-04-05T14:47:55.432320,0.9915681,0.000375,10.0556,34.9825,82.0338,88.9622,0,U,25134,999,6644,0.0,-3.11e-06,0,42480.225,1452.245,36118.02,36086.16,PAYLOAD,LARGE,UK,1998-01-10,AFETR,,2017054,104235834,0 SKYNET 4D,1 25134U 98002A   16096.61661380 -.00000311 +00000-0 +00000-0 0  9993,2 25134 010.0556 034.9825 0003750 082.0338 088.9622 00.99156810066448
2,GENERATED VIA SPACE-TRACK.ORG API,2016-04-06T22:46:38,18 SPCS,SKYNET 4D,1998-002A,EARTH,TEME,UTC,SGP4,2016-04-06T13:23:40.340256,0.99156594,0.0003787,10.0567,34.9744,81.8231,65.2648,0,U,25134,999,6651,0.0,-3.17e-06,0,42480.286,1452.248,36118.239,36086.064,PAYLOAD,LARGE,UK,1998-01-10,AFETR,,2017126,104241645,0 SKYNET 4D,1 25134U 98002A   16097.55810579 -.00000317  00000-0  00000+0 0  9998,2 25134  10.0567  34.9744 0003787  81.8231  65.2648  0.99156594 66512
2,GENERATED VIA SPACE-TRACK.ORG API,2016-04-08T22:47:38,18 SPCS,SKYNET 4D,1998-002A,EARTH,TEME,UTC,SGP4,2016-04-08T15:41:37.486176,0.99155883,0.0003887,10.0591,34.9563,81.6646,93.5731,0,U,25134,999,6653,0.0,-3.18e-06,0,42480.489,1452.258,36118.867,36085.842,PAYLOAD,LARGE,UK,1998-01-10,AFETR,,2018062,104277671,0 SKYNET 4D,1 25134U 98002A   16099.65390609 -.00000318  00000-0  00000+0 0  9999,2 25134  10.0591  34.9563 0003887  81.6646  93.5731  0.99155883 66536
2,GENERATED VIA SPACE-TRACK.ORG API,2016-04-11T22:53:05,18 SPCS,SKYNET 4D,1998-002A,EARTH,TEME,UTC,SGP4,2016-04-11T17:59:58.985664,0.99154448,0.000403,10.0628,34.9296,81.8934,118.5584,0,U,25134,999,6656,0.0,-2.85e-06,0,42480.899,1452.279,36119.884,36085.645,PAYLOAD,LARGE,UK,1998-01-10,AFETR,,2019367,104330528,0 SKYNET 4D,1 25134U 98002A   16102.74998826 -.00000285  00000-0  00000+0 0  9992,2 25134  10.0628  34.9296 0004030  81.8934 118.5584  0.99154448 66566
2,GENERATED VIA SPACE-TRACK.ORG API,2016-04-13T15:46:48,18 SPCS,SKYNET 4D,1998-002A,EARTH,TEME,UTC,SGP4,2016-04-12T17:05:15.467712,0.99153959,0.0004073,10.064,34.9214,82.0997,101.7548,0,U,25134,999,6651,0.0,-2.67e-06,0,42481.039,1452.286,36120.207,36085.601,PAYLOAD,LARGE,UK,1998-01-10,AFETR,,2020178,104359785,0 SKYNET 4D,1 25134U 98002A   16103.71198458 -.00000267 +00000-0 +00000-0 0  9994,2 25134 010.0640 034.9214 0004073 082.0997 101.7548 00.99153959066514
2,GENERATED VIA SPACE-TRACK.ORG API,2016-04-14T20:33:39,18 SPCS,SKYNET 4D,1998-002A,EARTH,TEME,UTC,SGP4,2016-04-14T05:08:03.964128,0.99149295,0.0003819,10.0665,34.908,81.9646,278.028,0,U,25134,999,6658,0.0001,0.0,0,42482.371,1452.355,36120.46,36088.012,PAYLOAD,LARGE,UK,1998-01-10,AFETR,,2020725,104383602,0 SKYNET 4D,1 25134U 98002A   16105.21393477  .00000000  00000-0  10000-3 0  9997,2 25134  10.0665  34.9080 0003819  81.9646 278.0280  0.99149295 66584
2,GENERATED VIA SPACE-TRACK.ORG API,2016-04-14T20:59:07,18 SPCS,SKYNET 4D,1998-002A,EARTH,TEME,UTC,SGP4,2016-04-14T16:05:41.593056,0.99152922,0.0004071,10.0663,34.9046,82.5234,80.4963,0,U,25134,999,6659,0.0,-2.2e-06,0,42481.335,1452.302,36120.494,36085.906,PAYLOAD,LARGE,UK,1998-01-10,AFETR,,2020770,104384629,0 SKYNET 4D,1 25134U 98002A   16105.67062029 -.00000220  00000-0  00000+0 0  9993,2 25134  10.0663  34.9046 0004071  82.5234  80.4963  0.99152922 66590
2,GENERATED VIA SPACE-TRACK.ORG API,2016-04-16T22:47:46,18 SPCS,SKYNET 4D,1998-002A,EARTH,TEME,UTC,SGP4,2016-04-16T17:46:48.631296,0.9915189,0.0004107,10.0688,34.887,83.0107,98.9983,0,U,25134,999,6661,0.0,-1.59e-06,0,42481.63,1452.317,36120.942,36086.048,PAYLOAD,LARGE,UK,1998-01-10,AFETR,,2021702,104420961,0 SKYNET 4D,1 25134U 98002A   16107.74084064 -.00000159  00000-0  00000+0 0  9997,2 25134  10.0688  34.8870 0004107  83.0107  98.9983  0.99151890 66618
2,GENERATED VIA SPACE-TRACK.ORG API,2016-04-18T15:40:20,18 SPCS,SKYNET 4D,1998-002A,EARTH,TEME,UTC,SGP4,2016-04-17T16:08:41.818272,0.99151479,0.0004119,10.07,34.8791,83.2561,71.3909,0,U,25134,999,6656,0.0,-1.3e-06,0,42481.747,1452.323,36121.111,36086.114,PAYLOAD,LARGE,UK,1998-01-10,AFETR,,2022473,104450496,0 SKYNET 4D,1 25134U 98002A   16108.67270623 -.00000130 +00000-0 +00000-0 0  9998,2 25134 010.0700 034.8791 0004119 083.2561 071.3909 00.99151479066564
2,GENERATED VIA SPACE-TRACK.ORG API,2016-04-18T22:43:47,18 SPCS,SKYNET 4D,1998-002A,EARTH,TEME,UTC,SGP4,2016-04-18T18:59:54.591648,0.99151018,0.0004201,10.0714,34.8697,83.3239,110.721,0,U,25134,999,6663,0.0,-9.5e-07,0,42481.879,1452.33,36121.591,36085.897,PAYLOAD,LARGE,UK,1998-01-10,AFETR,,2022545,104456144,0 SKYNET 4D,1 25134U 98002A   16109.79160407 -.00000095  00000-0  00000+0 0  9999,2 25134  10.0714  34.8697 0004201  83.3239 110.7210  0.99151018 66639
2,GENERATED VIA SPACE-TRACK.ORG API,2016-04-20T17:53:22,18 SPCS,SKYNET 4D,1998-002A,EARTH,TEME,UTC,SGP4,2016-04-19T22:33:01.124640,0.99150625,0.000423,10.0728,34.8601,83.4767,160.3501,0,U,25134,999,6658,0.0,-6e-07,0,42481.991,1452.335,36121.826,36085.886,PAYLOAD,LARGE,UK,1998-01-10,AFETR,,2023418,104486466,0 SKYNET 4D,1 25134U 98002A   16110.93959635 -.00000060 +00000-0 +00000-0 0  9999,2 25134 010.0728 034.8601 0004230 083.4767 160.3501 00.99150625066589
2,GENERATED VIA SPACE-TRACK.ORG API,2016-04-20T22:49:41,18 SPCS,SKYNET 4D,1998-002A,EARTH,TEME,UTC,SGP4,2016-04-20T19:31:52.476384,0.99150376,0.0004237,10.0738,34.8528,83.5581,112.3198,0,U,25134,999,6665,0.0,-3.5e-07,0,42482.062,1452.339,36121.927,36085.928,PAYLOAD,LARGE,UK,1998-01-10,AFETR,,2023485,104492336,0 SKYNET 4D,1 25134U 98002A   16111.81380181 -.00000035  00000-0  00000+0 0  9992,2 25134  10.0738  34.8528 0004237  83.5581 112.3198  0.99150376 66650
2,GENERATED VIA SPACE-TRACK.ORG API,2016-04-23T15:37:45,18 SPCS,SKYNET 4D,1998-002A,EARTH,TEME,UTC,SGP4,2016-04-22T16:56:43.763712,0.99150047,0.0004275,10.0761,34.837,83.7462,67.5801,0,U,25134,999,6661,0.0,1.3e-07,0,42482.156,1452.344,36122.183,36085.86,PAYLOAD,LARGE,UK,1998-01-10,AFETR,,2024770,104541172,0 SKYNET 4D,1 25134U 98002A   16113.70606208 +.00000013 +00000-0 +00000-0 0  9999,2 25134 010.0761 034.8370 0004275 083.7462 067.5801 00.99150047066616
2,GENERATED VIA SPACE-TRACK.ORG API,2016-04-24T06:53:34,18 SPCS,SKYNET 4D,1998-002A,EARTH,TEME,UTC,SGP4,2016-04-23T20:17:20.642784,0.99149996,0.0004296,10.0775,34.8273,83.7886,114.22,0,U,25134,999,6668,0.0,3.6e-07,0,42482.171,1452.344,36122.286,36085.786,PAYLOAD,LARGE,UK,1998-01-10,AFETR,,2025007,104549827,0 SKYNET 4D,1 25134U 98002A   16114.84537781  .00000036  00000-0  00000+0 0  9998,2 25134  10.0775  34.8273 0004296  83.7886 114.2200  0.99149996 66687
2,GENERATED VIA SPACE-TRACK.ORG API,2016-04-24T15:31:28,18 SPCS,SKYNET 4D,1998-002A,EARTH,TEME,UTC,SGP4,2016-04-23T20:17:20.642784,0.99149996,0.0004296,10.0775,34.8273,83.7886,114.22,0,U,25134,999,6662,0.0,3.6e-07,0,42482.171,1452.344,36122.286,36085.786,PAYLOAD,LARGE,UK,1998-01-10,AFETR,,2025229,104558919,0 SKYNET 4D,1 25134U 98002A   16114.84537781 +.00000036 +00000-0 +00000-0 0  9999,2 25134 010.0775 034.8273 0004296 083.7886 114.2200 00.99149996066621
2,GENERATED VIA SPACE-TRACK.ORG API,2016-04-26T18:24:55,18 SPCS,SKYNET 4D,1998-002A,EARTH,TEME,UTC,SGP4,2016-04-25T18:24:08.142624,0.99150116,0.000433,10.0799,34.8112,83.7303,80.1212,0,U,25134,999,6664,0.0,6.4e-07,0,42482.137,1452.343,36122.396,36085.607,PAYLOAD,LARGE,UK,1998-01-10,AFETR,,2026114,104593497,0 SKYNET 4D,1 25134U 98002A   16116.76676091 +.00000064 +00000-0 +00000-0 0  9991,2 25134 010.0799 034.8112 0004330 083.7303 080.1212 00.99150116066644
2,GENERATED VIA SPACE-TRACK.ORG API,2016-04-29T06:51:57,18 SPCS,SKYNET 4D,1998-002A,EARTH,TEME,UTC,SGP4,2016-04-28T22:00:20.903904,0.99150887,0.00044,10.0837,34.7846,83.3932,124.9179,0,U,25134,999,6673,0.0,7.5e-07,0,42481.916,1452.331,36122.473,36085.089,PAYLOAD,LARGE,UK,1998-01-10,AFETR,,2027308,104640373,0 SKYNET 4D,1 25134U 98002A   16119.91690861  .00000075  00000-0  00000+0 0  9993,2 25134  10.0837  34.7846 0004400  83.3932 124.9179  0.99150887 66736
2,GENERATED VIA SPACE-TRACK.ORG API,2016-04-29T16:24:51,18 SPCS,SKYNET 4D,1998-002A,EARTH,TEME,UTC,SGP4,2016-04-28T22:00:20.903904,0.99150887,0.00044,10.0837,34.7846,83.3932,124.9179,0,U,25134,999,6667,0.0,7.5e-07,0,42481.916,1452.331,36122.473,36085.089,PAYLOAD,LARGE,UK,1998-01-10,AFETR,,2027538,104650110,0 SKYNET 4D,1 25134U 98002A   16119.91690861 +.00000075 +00000-0 +00000-0 0  9994,2 25134 010.0837 034.7846 0004400 083.3932 124.9179 00.99150887066679
2,GENERATED VIA SPACE-TRACK.ORG API,2016-04-30T17:40:06,18 SPCS,SKYNET 4D,1998-002A,EARTH,TEME,UTC,SGP4,2016-04-29T16:04:55.797600,0.99151159,0.0004423,10.0846,34.7783,83.2089,33.9554,0,U,25134,999,6668,0.0,7.2e-07,0,42481.839,1452.327,36122.493,36084.914,PAYLOAD,LARGE,UK,1998-01-10,AFETR,,2027951,104667001,0 SKYNET 4D,1 25134U 98002A   16120.67009025 +.00000072 +00000-0 +00000-0 0  9992,2 25134 010.0846 034.7783 0004423 083.2089 033.9554 00.99151159066686
2,GENERATED VIA SPACE-TRACK.ORG API,2016-05-01T06:53:48,18 SPCS,SKYNET 4D,1998-002A,EARTH,TEME,UTC,SGP4,2016-05-01T00:32:00.833568,0.99151688,0.0004459,10.0862,34.7668,83.2079,156.614,0,U,25134,999,6675,0.0,6e-07,0,42481.688,1452.32,36122.495,36084.61,PAYLOAD,LARGE,UK,1998-01-10,AFETR,,2028172,104675431,0 SKYNET 4D,1 25134U 98002A   16122.02223187  .00000060  00000-0  00000+0 0  9996,2 25134  10.0862  34.7668 0004459  83.2079 156.6140  0.99151688 66753
